NORAD_CAT_ID,OBJECT_NAME,OBJECT_TYPE,EPOCH,MEAN_MOTION,ECCENTRICITY,INCLINATION,RA_OF_ASC_NODE,ARG_OF_PERICENTER,MEAN_ANOMALY,BSTAR,MEAN_MOTION_DOT,MEAN_MOTION_DDOT,TLE_LINE0,TLE_LINE1,TLE_LINE2,SEMIMAJOR_AXIS,PERIOD,APOGEE,PERIGEE,DECAYED
51958.0,STARLINK-3692,PAYLOAD,2023-09-12 23:11:42,15.08036108,0.0001452,53.0535,147.2849,88.0524,272.0632,0.00014346,1.949e-05,0.0,0 STARLINK-3692,1 51958U 22025C   23255.96646584  .00001949  00000-0  14346-3 0  9998,2 51958  53.0535 147.2849 0001452  88.0524 272.0632 15.08036108 85080,6920.339,95.488,543.208,541.199,0.0
51958.0,STARLINK-3692,PAYLOAD,2023-09-13 21:27:48,15.08046103,0.0001456,53.0533,143.1093,86.243,273.8726,0.00020867,2.966e-05,0.0,0 STARLINK-3692,1 51958U 22025C   23256.89430665  .00002966  00000-0  20867-3 0  9997,2 51958  53.0533 143.1093 0001456  86.2430 273.8726 15.08046103 84138,6920.308,95.488,543.181,541.165,0.0
51958.0,STARLINK-3692,PAYLOAD,2023-09-14 02:14:06,15.08052675,0.0001573,53.0539,142.2128,96.9596,263.1573,0.00016223,2.242e-05,0.0,0 STARLINK-3692,1 51958U 22025C   23257.09312718  .00002242  00000-0  16223-3 0  9996,2 51958  53.0539 142.2128 0001573  96.9596 263.1573 15.08052675 85251,6920.288,95.487,543.242,541.064,0.0
51958.0,STARLINK-3692,PAYLOAD,2023-09-14 19:43:54,15.08026176,0.0001562,53.0537,138.931,107.0159,253.1002,-6.1128e-05,-1.237e-05,0.0,0 STARLINK-3692,1 51958U 22025C   23257.82216339 -.00001237  00000-0 -61128-4 0  9999,2 51958  53.0537 138.9310 0001562 107.0159 253.1002 15.08026176 85366,6920.369,95.489,543.315,541.153,0.0
51958.0,STARLINK-3692,PAYLOAD,2023-09-14 21:19:21,15.08025247,0.0001544,53.0537,138.6327,108.4373,251.6784,-0.0001042,-1.908e-05,0.0,0 STARLINK-3692,1 51958U 22025C   23257.88843787 -.00001908  00000-0 -10420-3 0  9991,2 51958  53.0537 138.6327 0001544 108.4373 251.6784 15.08025247 84282,6920.372,95.489,543.305,541.168,0.0
51958.0,STARLINK-3692,PAYLOAD,2023-09-15 02:05:39,15.08024302,0.0001458,53.0539,137.7392,99.7664,260.3491,-6.0243e-05,-1.224e-05,0.0,0 STARLINK-3692,1 51958U 22025C   23258.08726482 -.00001224  00000-0 -60243-4 0  9996,2 51958  53.0539 137.7392 0001458  99.7664 260.3491 15.08024302 84312,6920.375,95.489,543.249,541.231,0.0
51958.0,STARLINK-3692,PAYLOAD,2023-09-15 22:46:19,15.08036264,0.0001346,53.0536,133.8639,102.1671,257.9469,0.0003928,5.836e-05,0.0,0 STARLINK-3692,1 51958U 22025C   23258.94883951  .00005836  00000-0  39280-3 0  9993,2 51958  53.0536 133.8639 0001346 102.1671 257.9469 15.08036264 85535,6920.338,95.488,543.135,541.272,0.0
51958.0,STARLINK-3692,PAYLOAD,2023-09-16 16:16:07,15.08029795,0.0001319,53.0528,130.5835,104.8544,255.2592,0.00014076,1.906e-05,0.0,0 STARLINK-3692,1 51958U 22025C   23259.67786749  .00001906  00000-0  14076-3 0  9991,2 51958  53.0528 130.5835 0001319 104.8544 255.2592 15.08029795 85647,6920.358,95.489,543.136,541.31,0.0
51958.0,STARLINK-3692,PAYLOAD,2023-09-17 01:48:44,15.08033996,0.0001324,53.0528,128.7927,104.1028,256.0109,0.00026684,3.871e-05,0.0,0 STARLINK-3692,1 51958U 22025C   23260.07551730  .00003871  00000-0  26684-3 0  9998,2 51958  53.0528 128.7927 0001324 104.1028 256.0109 15.08033996 84611,6920.345,95.489,543.126,541.294,0.0
51958.0,STARLINK-3692,PAYLOAD,2023-09-18 00:04:50,15.08041739,0.00013,53.0526,124.6172,98.9784,261.1353,0.00029396,4.295e-05,0.0,0 STARLINK-3692,1 51958U 22025C   23261.00336310  .00004295  00000-0  29396-3 0  9991,2 51958  53.0526 124.6172 0001300  98.9784 261.1353 15.08041739 85847,6920.321,95.488,543.086,541.287,0.0
51958.0,STARLINK-3692,PAYLOAD,2023-09-18 20:45:30,15.08033219,0.0001413,53.0529,120.7392,92.4374,267.6777,0.00012618,1.679e-05,0.0,0 STARLINK-3692,1 51958U 22025C   23261.86494092  .00001679  00000-0  12618-3 0  9999,2 51958  53.0529 120.7392 0001413  92.4374 267.6777 15.08033219 84888,6920.347,95.489,543.19,541.235,0.0
51958.0,STARLINK-3692,PAYLOAD,2023-09-18 23:56:22,15.08042681,0.000128,53.0523,120.1422,95.8838,264.2297,0.00032409,4.765e-05,0.0,0 STARLINK-3692,1 51958U 22025C   23261.99748734  .00004765  00000-0  32409-3 0  9997,2 51958  53.0523 120.1422 0001280  95.8838 264.2297 15.08042681 85990,6920.319,95.488,543.069,541.298,0.0
51958.0,STARLINK-3692,PAYLOAD,2023-09-19 19:01:36,15.08043954,0.0001341,53.0524,116.5636,84.5237,275.5905,0.00030041,4.396e-05,0.0,0 STARLINK-3692,1 51958U 22025C   23262.79278354  .00004396  00000-0  30041-3 0  9992,2 51958  53.0524 116.5636 0001341  84.5237 275.5905 15.08043954 86113,6920.315,95.488,543.108,541.252,0.0
51958.0,STARLINK-3692,PAYLOAD,2023-09-19 23:47:54,15.08049469,0.000141,53.0523,115.6684,78.3365,281.7783,0.00041366,6.163e-05,0.0,0 STARLINK-3692,1 51958U 22025C   23262.99160594  .00006163  00000-0  41366-3 0  9996,2 51958  53.0523 115.6684 0001410  78.3365 281.7783 15.08049469 85057,6920.298,95.488,543.139,541.187,0.0
51958.0,STARLINK-3692,PAYLOAD,2023-09-20 18:53:09,15.08020364,0.0001617,53.0527,112.0904,77.7284,282.3886,-0.00016674,-2.88e-05,0.0,0 STARLINK-3692,1 51958U 22025C   23263.78691809 -.00002880  00000-0 -16674-3 0  9990,2 51958  53.0527 112.0904 0001617  77.7284 282.3886 15.08020364 86267,6920.387,95.489,543.371,541.133,0.0
51958.0,STARLINK-3692,PAYLOAD,2023-09-20 20:28:35,15.08018721,0.00016,53.0527,111.792,79.9902,280.1268,-0.00018895,-3.226e-05,0.0,0 STARLINK-3692,1 51958U 22025C   23263.85319380 -.00003226  00000-0 -18895-3 0  9991,2 51958  53.0527 111.7920 0001600  79.9902 280.1268 15.08018721 85188,6920.392,95.49,543.364,541.15,0.0
51958.0,STARLINK-3692,PAYLOAD,2023-09-21 01:14:54,15.08022094,0.0001537,53.0528,110.8963,77.5122,282.6039,-6.7834e-05,-1.342e-05,0.0,0 STARLINK-3692,1 51958U 22025C   23264.05201993 -.00001342  00000-0 -67834-4 0  9999,2 51958  53.0528 110.8963 0001537  77.5122 282.6039 15.08022094 85218,6920.382,95.489,543.31,541.183,0.0
51958.0,STARLINK-3692,PAYLOAD,2023-09-21 18:44:42,15.08032118,0.0001526,53.0529,107.6151,80.6793,279.4369,0.00022152,3.165e-05,0.0,0 STARLINK-3692,1 51958U 22025C   23264.78104464  .00003165  00000-0  22152-3 0  9990,2 51958  53.0529 107.6151 0001526  80.6793 279.4369 15.08032118 86410,6920.351,95.489,543.272,541.16,0.0
51958.0,STARLINK-3692,PAYLOAD,2023-09-22 01:06:26,15.08043207,0.0001531,53.053,106.4207,88.4928,271.6237,0.00065759,9.97e-05,0.0,0 STARLINK-3692,1 51958U 22025C   23265.04614295  .00009970  00000-0  65759-3 0  9998,2 51958  53.0530 106.4207 0001531  88.4928 271.6237 15.08043207 86456,6920.317,95.488,543.241,541.122,0.0
51958.0,STARLINK-3692,PAYLOAD,2023-09-22 17:00:48,15.08040206,0.0001563,53.0531,103.4385,82.7934,277.3233,0.0004367,6.521e-05,0.0,0 STARLINK-3692,1 51958U 22025C   23265.70889431  .00006521  00000-0  43670-3 0  9994,2 51958  53.0531 103.4385 0001563  82.7934 277.3233 15.08040206 86556,6920.326,95.488,543.273,541.109,0.0
51958.0,STARLINK-3692,PAYLOAD,2023-09-22 20:11:40,15.080453,0.0001544,53.0531,102.8418,83.3124,276.8042,0.00056963,8.597e-05,0.0,0 STARLINK-3692,1 51958U 22025C   23265.84144284  .00008597  00000-0  56963-3 0  9993,2 51958  53.0531 102.8418 0001544  83.3124 276.8042 15.08045300 85486,6920.311,95.488,543.244,541.107,0.0
51958.0,STARLINK-3692,PAYLOAD,2023-09-23 13:41:28,15.08032327,0.0002525,53.0532,99.5607,87.9901,272.1378,0.00056078,8.456e-05,0.0,0 STARLINK-3692,1 51958U 22025C   23266.57047142  .00008456  00000-0  56078-3 0  9990,2 51958  53.0532  99.5607 0002525  87.9901 272.1378 15.08032327 85590,6920.35,95.489,543.963,540.468,0.0
51958.0,STARLINK-3692,PAYLOAD,2023-09-23 18:27:47,15.08012907,0.0001535,53.0537,98.6652,84.6585,275.458,-7.1987e-05,-1.406e-05,0.0,0 STARLINK-3692,1 51958U 22025C   23266.76929961 -.00001406  00000-0 -71987-4 0  9996,2 51958  53.0537  98.6652 0001535  84.6585 275.4580 15.08012907 86715,6920.41,95.49,543.337,541.212,0.0
51958.0,STARLINK-3692,PAYLOAD,2023-09-24 00:49:32,15.08022791,0.00015,53.0533,97.4723,82.4568,277.6592,0.0002723,3.955e-05,0.0,0 STARLINK-3692,1 51958U 22025C   23267.03440081  .00003955  00000-0  27230-3 0  9998,2 51958  53.0533  97.4723 0001500  82.4568 277.6592 15.08022791 86759,6920.379,95.489,543.282,541.206,0.0
51958.0,STARLINK-3692,PAYLOAD,2023-09-24 11:57:35,15.0803439,0.0001432,53.0535,95.3843,79.9611,280.154,0.00063859,9.671e-05,0.0,0 STARLINK-3692,1 51958U 22025C   23267.49832636  .00009671  00000-0  63859-3 0  9997,2 51958  53.0535  95.3843 0001432  79.9611 280.1540 15.08034390 85732,6920.344,95.489,543.2,541.218,0.0
51958.0,STARLINK-3692,PAYLOAD,2023-09-24 19:54:45,15.08048777,0.0001392,53.0533,93.8931,78.466,281.6486,0.0011365,0.00017461,0.0,0 STARLINK-3692,1 51958U 22025C   23267.82969883  .00017461  00000-0  11365-2 0  9999,2 51958  53.0533  93.8931 0001392  78.4660 281.6486 15.08048777 86879,6920.3,95.488,543.128,541.202,0.0
51958.0,STARLINK-3692,PAYLOAD,2023-09-25 05:27:22,15.08060338,0.0001378,53.0533,92.1037,84.0723,276.0424,0.0013336,0.00020554,0.0,0 STARLINK-3692,1 51958U 22025C   23268.22734563  .00020554  00000-0  13336-2 0  9996,2 51958  53.0533  92.1037 0001378  84.0723 276.0424 15.08060338 85848,6920.265,95.487,543.083,541.176,0.0
51958.0,STARLINK-3692,PAYLOAD,2023-09-25 19:46:17,15.08051563,0.0001537,53.0529,89.4188,83.6496,276.4669,0.00063953,9.69e-05,0.0,0 STARLINK-3692,1 51958U 22025C   23268.82381640  .00009690  00000-0  63953-3 0  9995,2 51958  53.0529  89.4188 0001537  83.6496 276.4669 15.08051563 87025,6920.291,95.487,543.22,541.093,0.0
51958.0,STARLINK-3692,PAYLOAD,2023-09-25 21:21:43,15.08052695,0.0001521,53.0529,89.1206,84.1932,275.9231,0.00066227,0.00010046,0.0,0 STARLINK-3692,1 51958U 22025C   23268.89009035  .00010046  00000-0  66227-3 0  9991,2 51958  53.0529  89.1206 0001521  84.1932 275.9231 15.08052695 85942,6920.288,95.487,543.205,541.1,0.0
51958.0,STARLINK-3692,PAYLOAD,2023-09-25 22:57:09,15.08057383,0.0001532,53.0528,88.8222,84.1783,275.9382,0.00082089,0.00012526,0.0,0 STARLINK-3692,1 51958U 22025C   23268.95636366  .00012526  00000-0  82089-3 0  9990,2 51958  53.0528  88.8222 0001532  84.1783 275.9382 15.08057383 85958,6920.274,95.487,543.199,541.078,0.0
